NORAD_CAT_ID,OBJECT_NAME,OBJECT_TYPE,EPOCH,MEAN_MOTION,ECCENTRICITY,INCLINATION,RA_OF_ASC_NODE,ARG_OF_PERICENTER,MEAN_ANOMALY,BSTAR,MEAN_MOTION_DOT,MEAN_MOTION_DDOT,TLE_LINE0,TLE_LINE1,TLE_LINE2,SEMIMAJOR_AXIS,PERIOD,APOGEE,PERIGEE,DECAYED
49449.0,STARLINK-3137,PAYLOAD,2023-03-12 06:12:18,15.08836168,0.0001565,53.2165,87.7247,88.1685,271.9486,0.0003706,5.614e-05,0.0,0 STARLINK-3137,1 49449U 21104AT  23071.25855078  .00005614  00000-0  37060-3 0  9996,2 49449  53.2165  87.7247 0001565  88.1685 271.9486 15.08836168 73702,6917.892,95.438,540.84,538.674,0.0
49449.0,STARLINK-3137,PAYLOAD,2023-03-12 07:47:41,15.08841776,0.000177,53.2163,87.4231,112.2549,247.8631,0.00054662,8.423e-05,0.0,0 STARLINK-3137,1 49449U 21104AT  23071.32478872  .00008423  00000-0  54662-3 0  9995,2 49449  53.2163  87.4231 0001770 112.2549 247.8631 15.08841776 74791,6917.875,95.437,540.964,538.515,0.0
49449.0,STARLINK-3137,PAYLOAD,2023-03-13 12:24:38,15.08845642,0.0001775,53.2155,82.0725,91.4574,268.6621,0.00029583,4.424e-05,0.0,0 STARLINK-3137,1 49449U 21104AT  23072.51710983  .00004424  00000-0  29583-3 0  9990,2 49449  53.2155  82.0725 0001775  91.4574 268.6621 15.08845642 74978,6917.863,95.437,540.956,538.5,0.0
49449.0,STARLINK-3137,PAYLOAD,2023-03-14 05:53:53,15.08834598,0.0001748,53.2169,78.798,108.0569,252.0614,-2.0367e-05,-6.12e-06,0.0,0 STARLINK-3137,1 49449U 21104AT  23073.24575397 -.00000612  00000-0 -20367-4 0  9998,2 49449  53.2169  78.7980 0001748 108.0569 252.0614 15.08834598 75087,6917.897,95.438,540.971,538.553,0.0
49449.0,STARLINK-3137,PAYLOAD,2023-03-14 10:40:02,15.08835138,0.0001786,53.217,77.9055,109.6355,250.483,-1.3519e-05,-5.03e-06,0.0,0 STARLINK-3137,1 49449U 21104AT  23073.44447410 -.00000503  00000-0 -13519-4 0  9994,2 49449  53.2170  77.9055 0001786 109.6355 250.4830 15.08835138 74032,6917.895,95.438,540.996,538.525,0.0
49449.0,STARLINK-3137,PAYLOAD,2023-03-14 17:01:34,15.0884547,0.0001573,53.2179,76.7191,99.582,260.535,4.5358e-05,4.34e-06,0.0,0 STARLINK-3137,1 49449U 21104AT  23073.70943100  .00000434  00000-0  45358-4 0  9997,2 49449  53.2179  76.7191 0001573  99.5820 260.5350 15.08845470 75150,6917.864,95.437,540.817,538.64,0.0
49449.0,STARLINK-3137,PAYLOAD,2023-03-15 04:09:15,15.08847831,0.0001369,53.2171,74.6392,96.7067,263.4081,0.00029386,4.393e-05,0.0,0 STARLINK-3137,1 49449U 21104AT  23074.17310124  .00004393  00000-0  29386-3 0  9993,2 49449  53.2171  74.6392 0001369  96.7067 263.4081 15.08847831 75221,6917.856,95.437,540.669,538.774,0.0
49449.0,STARLINK-3137,PAYLOAD,2023-03-15 12:06:11,15.08881948,0.0001331,53.2157,73.1505,96.9851,263.1293,0.0011166,0.00017548,0.0,0 STARLINK-3137,1 49449U 21104AT  23074.50429653  .00017548  00000-0  11166-2 0  9990,2 49449  53.2157  73.1505 0001331  96.9851 263.1293 15.08881948 75271,6917.752,95.435,540.538,538.696,0.0
49449.0,STARLINK-3137,PAYLOAD,2023-03-16 05:35:26,15.08850102,0.0001387,53.2156,69.8799,89.5427,270.5724,0.00043014,6.566e-05,0.0,0 STARLINK-3137,1 49449U 21104AT  23075.23294338  .00006566  00000-0  43014-3 0  9997,2 49449  53.2156  69.8799 0001387  89.5427 270.5724 15.08850102 75386,6917.85,95.437,540.674,538.755,0.0
49449.0,STARLINK-3137,PAYLOAD,2023-03-16 11:56:58,15.08849756,0.0001628,53.2151,68.6902,100.4613,259.6562,0.0013042,0.00020535,0.0,0 STARLINK-3137,1 49449U 21104AT  23075.49790341  .00020535  00000-0  13042-2 0  9999,2 49449  53.2151  68.6902 0001628 100.4613 259.6562 15.08849756 74348,6917.851,95.437,540.842,538.589,0.0
49449.0,STARLINK-3137,PAYLOAD,2023-03-16 16:43:08,15.08818917,0.0001776,53.2152,67.7982,92.306,267.8135,0.00083586,0.00013032,0.0,0 STARLINK-3137,1 49449U 21104AT  23075.69662976  .00013032  00000-0  83586-3 0  9998,2 49449  53.2152  67.7982 0001776  92.3060 267.8135 15.08818917 74371,6917.945,95.439,541.038,538.581,0.0
49449.0,STARLINK-3137,PAYLOAD,2023-03-16 23:04:41,15.08835891,0.0001334,53.2153,66.6097,95.2701,264.8443,0.00065591,0.00010165,0.0,0 STARLINK-3137,1 49449U 21104AT  23075.96158954  .00010165  00000-0  65591-3 0  9994,2 49449  53.2153  66.6097 0001334  95.2701 264.8443 15.08835891 75494,6917.893,95.438,540.681,538.835,0.0
49449.0,STARLINK-3137,PAYLOAD,2023-03-17 08:37:00,15.08845028,0.0001473,53.215,64.8248,96.2555,263.8605,0.0014555,0.00022955,0.0,0 STARLINK-3137,1 49449U 21104AT  23076.35903021  .00022955  00000-0  14555-2 0  9994,2 49449  53.2150  64.8248 0001473  96.2555 263.8605 15.08845028 74470,6917.865,95.437,540.749,538.711,0.0
49449.0,STARLINK-3137,PAYLOAD,2023-03-17 16:33:56,15.08835776,0.0001722,53.2144,63.3362,99.5917,260.527,0.00047635,7.3e-05,0.0,0 STARLINK-3137,1 49449U 21104AT  23076.69023300  .00007300  00000-0  47635-3 0  9997,2 49449  53.2144  63.3362 0001722  99.5917 260.5270 15.08835776 75606,6917.893,95.438,540.95,538.567,0.0
49449.0,STARLINK-3137,PAYLOAD,2023-03-17 22:55:28,15.08836485,0.0001643,53.2139,62.1463,98.7642,261.3536,0.00038351,5.82e-05,0.0,0 STARLINK-3137,1 49449U 21104AT  23076.95519387  .00005820  00000-0  38351-3 0  9991,2 49449  53.2139  62.1463 0001643  98.7642 261.3536 15.08836485 74563,6917.891,95.438,540.893,538.62,0.0
49449.0,STARLINK-3137,PAYLOAD,2023-03-18 16:24:43,15.08833287,0.0001563,53.2158,58.8773,92.9078,267.2093,4.904e-05,4.92e-06,0.0,0 STARLINK-3137,1 49449U 21104AT  23077.68383611  .00000492  00000-0  49040-4 0  9999,2 49449  53.2158  58.8773 0001563  92.9078 267.2093 15.08833287 75752,6917.901,95.438,540.847,538.685,0.0
49449.0,STARLINK-3137,PAYLOAD,2023-03-18 22:46:15,15.08841012,0.0001287,53.2163,57.6874,92.3607,267.7533,0.00026707,3.965e-05,0.0,0 STARLINK-3137,1 49449U 21104AT  23077.94879421  .00003965  00000-0  26707-3 0  9999,2 49449  53.2163  57.6874 0001287  92.3607 267.7533 15.08841012 74716,6917.877,95.437,540.633,538.852,0.0
49449.0,STARLINK-3137,PAYLOAD,2023-03-19 05:07:48,15.08854206,0.0001323,53.216,56.4979,93.95,266.1643,0.00074106,0.0001153,0.0,0 STARLINK-3137,1 49449U 21104AT  23078.21375116  .00011530  00000-0  74106-3 0  9995,2 49449  53.2160  56.4979 0001323  93.9500 266.1643 15.08854206 75834,6917.837,95.437,540.617,538.787,0.0
49449.0,STARLINK-3137,PAYLOAD,2023-03-20 04:58:35,15.08848694,0.0001508,53.2158,52.0353,100.4287,259.6875,0.00032598,4.905e-05,0.0,0 STARLINK-3137,1 49449U 21104AT  23079.20735117  .00004905  00000-0  32598-3 0  9993,2 49449  53.2158  52.0353 0001508 100.4287 259.6875 15.08848694 75984,6917.854,95.437,540.762,538.676,0.0
49449.0,STARLINK-3137,PAYLOAD,2023-03-20 08:09:21,15.08851255,0.000135,53.2166,51.442,103.4182,256.6961,0.00043414,6.63e-05,0.0,0 STARLINK-3137,1 49449U 21104AT  23079.33983021  .00006630  00000-0  43414-3 0  9992,2 49449  53.2166  51.4420 0001350 103.4182 256.6961 15.08851255 74926,6917.846,95.437,540.645,538.777,0.0
49449.0,STARLINK-3137,PAYLOAD,2023-03-21 04:49:22,15.08843994,0.0001319,53.2163,47.5787,99.5871,260.5271,9.6306e-05,1.245e-05,0.0,0 STARLINK-3137,1 49449U 21104AT  23080.20095220  .00001245  00000-0  96306-4 0  9991,2 49449  53.2163  47.5787 0001319  99.5871 260.5271 15.08843994 76134,6917.868,95.437,540.646,538.821,0.0
49449.0,STARLINK-3137,PAYLOAD,2023-03-22 04:40:09,15.08839679,0.0001445,53.2181,43.1195,108.2824,251.8325,7.1369e-05,8.48e-06,0.0,0 STARLINK-3137,1 49449U 21104AT  23081.19455752  .00000848  00000-0  71369-4 0  9990,2 49449  53.2181  43.1195 0001445 108.2824 251.8325 15.08839679 76289,6917.881,95.438,540.746,538.747,0.0
49449.0,STARLINK-3137,PAYLOAD,2023-03-22 07:50:55,15.08843801,0.0001298,53.2176,42.5229,104.8345,255.2791,0.00014353,1.997e-05,0.0,0 STARLINK-3137,1 49449U 21104AT  23081.32703466  .00001997  00000-0  14353-3 0  9998,2 49449  53.2176  42.5229 0001298 104.8345 255.2791 15.08843801 75220,6917.869,95.437,540.632,538.836,0.0
49449.0,STARLINK-3137,PAYLOAD,2023-03-23 04:30:56,15.08847516,0.0001199,53.2173,38.656,83.726,276.3868,0.00016379,2.32e-05,0.0,0 STARLINK-3137,1 49449U 21104AT  23082.18815375  .00002320  00000-0  16379-3 0  9997,2 49449  53.2173  38.6560 0001199  83.7260 276.3868 15.08847516 75352,6917.857,95.437,540.552,538.893,0.0
49449.0,STARLINK-3137,PAYLOAD,2023-03-24 04:21:42,15.08881866,0.0001071,53.2178,34.1957,109.1521,250.9587,0.00068241,0.00010602,0.0,0 STARLINK-3137,1 49449U 21104AT  23083.18174094  .00010602  00000-0  68241-3 0  9991,2 49449  53.2178  34.1957 0001071 109.1521 250.9587 15.08881866 76588,6917.752,95.435,540.358,538.877,0.0
49449.0,STARLINK-3137,PAYLOAD,2023-03-24 05:57:05,15.08886263,0.0001092,53.2175,33.898,125.2749,234.8345,0.00072489,0.00011282,0.0,0 STARLINK-3137,1 49449U 21104AT  23083.24797684  .00011282  00000-0  72489-3 0  9998,2 49449  53.2175  33.8980 0001092 125.2749 234.8345 15.08886263 75512,6917.739,95.435,540.359,538.849,0.0
49449.0,STARLINK-3137,PAYLOAD,2023-03-25 02:37:06,15.08853247,0.0001367,53.2186,30.0313,82.8176,277.2972,7.5984e-05,9.22e-06,0.0,0 STARLINK-3137,1 49449U 21104AT  23084.10910452  .00000922  00000-0  75984-4 0  9997,2 49449  53.2186  30.0313 0001367  82.8176 277.2972 15.08853247 76727,6917.84,95.437,540.651,538.759,0.0
49449.0,STARLINK-3137,PAYLOAD,2023-03-26 02:27:54,15.08838722,0.0001078,53.2168,25.5724,96.2198,263.8917,-0.00029651,-5.003e-05,0.0,0 STARLINK-3137,1 49449U 21104AT  23085.10271430 -.00005003  00000-0 -29651-3 0  9990,2 49449  53.2168  25.5724 0001078  96.2198 263.8917 15.08838722 76871,6917.884,95.438,540.495,539.004,0.0
49449.0,STARLINK-3137,PAYLOAD,2023-03-27 05:29:28,15.0884488,0.0001349,53.2173,20.5177,71.5723,288.5416,0.00020355,2.953e-05,0.0,0 STARLINK-3137,1 49449U 21104AT  23086.22879799  .00002953  00000-0  20355-3 0  9997,2 49449  53.2173  20.5177 0001349  71.5723 288.5416 15.08844880 77045,6917.865,95.437,540.664,538.797,0.0
49449.0,STARLINK-3137,PAYLOAD,2023-03-28 05:20:14,15.08855423,0.0001247,53.2187,16.058,74.9666,285.1464,0.00037109,5.625e-05,0.0,0 STARLINK-3137,1 49449U 21104AT  23087.22238736  .00005625  00000-0  37109-3 0  9992,2 49449  53.2187  16.0580 0001247  74.9666 285.1464 15.08855423 76116,6917.833,95.437,540.561,538.836,0.0
